[{"OBJECT_NAME":"STARLINK-32197","OBJECT_ID":"2024-141U","EPOCH":"2026-03-09T17:24:45.654624","MEAN_MOTION":15.30188333,"ECCENTRICITY":0.0001232,"INCLINATION":53.1603,"RA_OF_ASC_NODE":232.6289,"ARG_OF_PERICENTER":87.7973,"MEAN_ANOMALY":272.3169,"EPHEMERIS_TYPE":0,"CLASSIFICATION_TYPE":"U","NORAD_CAT_ID":60416,"ELEMENT_SET_NO":999,"REV_AT_EPOCH":8966,"BSTAR":1.9463388e-5,"MEAN_MOTION_DOT":2.17e-6,"MEAN_MOTION_DDOT":0},{"OBJECT_NAME":"CZ-2F DEB","OBJECT_ID":"2026-024E","EPOCH":"2026-03-09T06:46:05.636352","MEAN_MOTION":15.25893319,"ECCENTRICITY":0.0230643,"INCLINATION":50.3206,"RA_OF_ASC_NODE":20.6889,"ARG_OF_PERICENTER":278.3013,"MEAN_ANOMALY":79.1857,"EPHEMERIS_TYPE":0,"CLASSIFICATION_TYPE":"U","NORAD_CAT_ID":67718,"ELEMENT_SET_NO":999,"REV_AT_EPOCH":457,"BSTAR":0.0044193489,"MEAN_MOTION_DOT":0.00260029,"MEAN_MOTION_DDOT":0}]
